IRIDIUM 136             
1 42962U 17061H   23286.93613415  .00000786  00000+0  27340-3 0  9990
2 42962  86.3938  73.6500 0002127  85.5263 274.6176 14.34218815314765
